     3.04           N: GNSS NAV DATA    G: GPS              RINEX VERSION / TYPE
sbf2rin-13.8.0                          20220215 104949 UTC PGM / RUN BY / DATE 
GPSA   1.6764E-08 -7.4506E-09 -1.1921E-07  1.1921E-07       IONOSPHERIC CORR    
GPSB   1.1878E+05 -6.5536E+04 -3.2768E+05  3.2768E+05       IONOSPHERIC CORR    
GPUT  3.7252902985E-09 7.993605777E-15 503808 2182          TIME SYSTEM CORR    
    18                                                      LEAP SECONDS        
                                                            END OF HEADER       
G01 2021 11 03 10 00 00 5.212360993028E-04-1.057287590811E-11 0.000000000000E+00
     5.100000000000E+01 2.531250000000E+00 3.694439602524E-09 2.516185652569E+00
     9.685754776001E-08 1.107624918222E-02 1.446716487408E-05 5.153679025650E+03
     2.952000000000E+05-9.313225746155E-09-3.362616244750E-02-1.713633537292E-07
     9.863431629575E-01 1.107500000000E+02 8.867989519930E-01-7.389950678251E-09
     4.232319150224E-10 1.000000000000E+00 2.182000000000E+03 0.000000000000E+00
     2.000000000000E+00 0.000000000000E+00 5.122274160385E-09 5.100000000000E+01
     2.880180000000E+05 4.000000000000E+00
G02 2021 11 03 10 00 00-6.403974257410E-04-1.705302565824E-12 0.000000000000E+00
     9.900000000000E+01-3.275000000000E+01 4.109456889660E-09 2.737177192657E+00
    -1.527369022369E-06 2.042439288925E-02 1.337751746178E-05 5.153792690277E+03
     2.952000000000E+05 3.371387720108E-07-1.206731572642E-01-1.285225152969E-07
     9.647907720940E-01 1.173125000000E+02-1.483341869794E+00-7.442810022912E-09
     1.453631978178E-10 1.000000000000E+00 2.182000000000E+03 0.000000000000E+00
     2.800000000000E+00 0.000000000000E+00-1.769512891769E-08 9.900000000000E+01
     2.890980000000E+05 4.000000000000E+00
G03 2021 11 03 10 00 00-4.746019840240E-06-7.958078640513E-12 0.000000000000E+00
     7.100000000000E+01 3.915625000000E+01 4.869131390295E-09 1.348172192075E+00
     1.970678567886E-06 3.885625512339E-03 4.746019840240E-06 5.153732259750E+03
     2.952000000000E+05-9.685754776001E-08 1.002013590322E+00 2.421438694000E-08
     9.709287901442E-01 2.925312500000E+02 1.003277337957E+00-8.372848762759E-09
     3.153702792951E-10 1.000000000000E+00 2.182000000000E+03 0.000000000000E+00
     2.000000000000E+00 6.300000000000E+01 1.862645149231E-09 7.100000000000E+01
     2.880180000000E+05 4.000000000000E+00
G04 2021 11 03 10 00 00-2.026357688010E-04 7.958078640513E-13 0.000000000000E+00
     1.840000000000E+02-6.509375000000E+01 4.625549815573E-09-1.932513360756E+00
    -3.458932042122E-06 1.482554827817E-03 9.143725037575E-06 5.153681026459E+03
     2.952000000000E+05 2.048909664154E-08 2.083550519442E+00 1.490116119385E-08
     9.605909186161E-01 2.023125000000E+02-3.122415308765E+00-8.119623929214E-09
    -7.039578941005E-10 1.000000000000E+00 2.182000000000E+03 0.000000000000E+00
     2.000000000000E+00 0.000000000000E+00-4.190951585770E-09 1.840000000000E+02
     2.880180000000E+05 4.000000000000E+00
G06 2021 11 03 10 00 00 1.090653240681E-04 8.867573342286E-12 0.000000000000E+00
     4.300000000000E+01-1.403125000000E+01 3.739441477033E-09 2.906519944748E+00
    -5.364418029785E-07 2.335174707696E-03 1.404993236065E-05 5.153613594055E+03
     2.952000000000E+05 1.005828380585E-07-4.187750171461E-02 8.381903171539E-08
     9.857512750802E-01 1.203437500000E+02-1.041316161649E+00-7.566386598944E-09
     3.582292073987E-10 1.000000000000E+00 2.182000000000E+03 0.000000000000E+00
     2.000000000000E+00 0.000000000000E+00 4.190951585770E-09 4.300000000000E+01
     2.880180000000E+05 4.000000000000E+00
G08 2021 11 03 08 00 00-4.261126741767E-05-1.477928890381E-12 0.000000000000E+00
     7.000000000000E+00-1.211562500000E+02 4.648407910562E-09-2.484323890748E+00
    -6.254762411118E-06 6.691802060232E-03 7.132068276405E-06 5.153672172546E+03
     2.880000000000E+05-7.078051567078E-08-1.110948336806E+00-8.940696716309E-08
     9.656548563608E-01 2.474375000000E+02 5.523374189562E-02-8.241771874309E-09
    -4.507330605555E-10 1.000000000000E+00 2.182000000000E+03 0.000000000000E+00
     2.000000000000E+00 0.000000000000E+00 5.122274160385E-09 7.000000000000E+00
     2.808180000000E+05 4.000000000000E+00
G09 2021 11 03 09 59 44-3.618821501732E-04 1.136868377216E-13 0.000000000000E+00
     3.200000000000E+01-7.306250000000E+01 4.953063457831E-09-1.112267460279E+00
    -3.835186362267E-06 2.322841784917E-03 8.191913366318E-06 5.153677804947E+03
     2.951840000000E+05 2.421438694000E-08 2.031422441447E+00 2.235174179077E-08
     9.534858136999E-01 2.165625000000E+02 1.819493317520E+00-8.333561411997E-09
    -7.036007363663E-10 1.000000000000E+00 2.182000000000E+03 0.000000000000E+00
     2.000000000000E+00 0.000000000000E+00 1.396983861923E-09 3.200000000000E+01
     2.887920000000E+05 4.000000000000E+00
G11 2021 11 03 10 00 00 2.065394073725E-05-9.094947017729E-13 0.000000000000E+00
     1.900000000000E+02-3.500000000000E+00 4.340537943685E-09-1.166151171631E+00
    -4.470348358154E-08 4.177519585937E-04 1.306273043156E-05 5.153729179382E+03
     2.952000000000E+05 6.146728992462E-08 1.252604441146E-02-5.587935447693E-08
     9.613677251903E-01 1.276250000000E+02 2.448011248946E+00-7.877470985429E-09
     3.689439394246E-10 1.000000000000E+00 2.182000000000E+03 0.000000000000E+00
     5.120000000000E+02 6.300000000000E+01-8.847564458847E-09 7.020000000000E+02
     2.885580000000E+05 4.000000000000E+00
G12 2021 11 03 10 00 00-1.208824105561E-04-5.570655048359E-12 0.000000000000E+00
     4.700000000000E+01 6.268750000000E+01 4.676266213829E-09 1.181815533738E+00
     3.106892108917E-06 8.314922451973E-03 2.352520823479E-06 5.153655387878E+03
     2.952000000000E+05-1.490116119385E-07-2.068170955302E+00 3.539025783539E-08
     9.715046985674E-01 3.387187500000E+02 1.229217022897E+00-8.584286141403E-09
     2.760829285336E-10 1.000000000000E+00 2.182000000000E+03 0.000000000000E+00
     2.000000000000E+00 0.000000000000E+00-1.257285475731E-08 4.700000000000E+01
     2.880180000000E+05 4.000000000000E+00
G14 2021 11 03 10 00 00-3.134086728096E-05-7.162270776462E-12 0.000000000000E+00
     2.280000000000E+02 6.868750000000E+01 5.087354765889E-09 1.126863037843E+00
     3.527849912643E-06 1.153665827587E-03 2.361834049225E-06 5.153640722275E+03
     2.952000000000E+05-3.539025783539E-08-2.097850141365E+00 1.490116119385E-08
     9.549701766953E-01 3.308125000000E+02 3.127876564820E+00-8.691076303928E-09
     3.325138505366E-10 1.000000000000E+00 2.182000000000E+03 0.000000000000E+00
     2.000000000000E+00 0.000000000000E+00-7.916241884232E-09 7.400000000000E+02
     2.880180000000E+05 4.000000000000E+00
G17 2021 11 03 09 59 44 5.283821374178E-04 5.456968210638E-12 0.000000000000E+00
     1.700000000000E+01-1.187500000000E+02 4.291250176366E-09-1.506466047638E+00
    -5.787238478661E-06 1.371379499324E-02 7.724389433861E-06 5.153692281723E+03
     2.951840000000E+05-1.862645149231E-09-1.030636534903E+00 3.427267074585E-07
     9.806890065249E-01 2.406562500000E+02-1.543298443752E+00-8.093551414617E-09
    -4.725196823414E-10 1.000000000000E+00 2.182000000000E+03 0.000000000000E+00
     2.000000000000E+00 0.000000000000E+00-1.117587089539E-08 1.700000000000E+01
     2.880180000000E+05 4.000000000000E+00
G19 2021 11 03 10 00 00 7.432559505105E-05 5.002220859751E-12 0.000000000000E+00
     9.100000000000E+01-1.278125000000E+02 4.245891144123E-09 8.624089477086E-01
    -6.726011633873E-06 8.978786761872E-03 7.731840014458E-06 5.153664377213E+03
     2.952000000000E+05-7.450580596924E-09-9.856442933440E-01-1.713633537292E-07
     9.793898138484E-01 2.431562500000E+02 1.967822648489E+00-8.187483898711E-09
    -4.675194740627E-10 1.000000000000E+00 2.182000000000E+03 0.000000000000E+00
     2.000000000000E+00 0.000000000000E+00-1.583248376846E-08 9.100000000000E+01
     2.880180000000E+05 4.000000000000E+00
G20 2021 11 03 10 00 00 5.183164030313E-04-2.273736754432E-13 0.000000000000E+00
     1.600000000000E+01 6.000000000000E+01 5.390224524487E-09-2.610137809437E+00
     3.082677721977E-06 5.515958997421E-03 5.893409252167E-06 5.153674629211E+03
     2.952000000000E+05-1.639127731323E-07 8.508909065188E-01-2.980232238770E-08
     9.401449414733E-01 2.532187500000E+02 3.018486166168E+00-8.521426380184E-09
     4.464471677451E-10 1.000000000000E+00 2.182000000000E+03 0.000000000000E+00
     2.000000000000E+00 0.000000000000E+00-8.381903171539E-09 1.600000000000E+01
     2.915580000000E+05 4.000000000000E+00
G21 2021 11 03 10 00 00 1.498558558524E-04 1.250555214938E-12 0.000000000000E+00
     5.600000000000E+01 1.540625000000E+01 4.279463971137E-09-1.401943887790E+00
     7.301568984985E-07 2.417933172546E-02 1.477450132370E-05 5.153633134842E+03
     2.952000000000E+05-5.494803190231E-07-1.216323121883E-01 1.154839992523E-07
     9.589971790875E-01 1.032812500000E+02-1.063455779533E+00-8.123195506556E-09
     4.221604418198E-10 1.000000000000E+00 2.182000000000E+03 0.000000000000E+00
     2.000000000000E+00 0.000000000000E+00-1.024454832077E-08 5.600000000000E+01
     2.880180000000E+05 4.000000000000E+00
G22 2021 11 03 10 00 00-4.737935960293E-04 9.094947017729E-12 0.000000000000E+00
     9.000000000000E+01 5.671875000000E+01 5.523444359342E-09-2.654955794046E+00
     2.987682819366E-06 6.727204658091E-03 4.800036549568E-06 5.153685489655E+03
     2.952000000000E+05-1.490116119385E-08 8.969005403076E-01 8.754432201385E-08
     9.368123248507E-01 2.716875000000E+02-8.806640777537E-01-8.578571617656E-09
     4.368039089218E-10 1.000000000000E+00 2.182000000000E+03 0.000000000000E+00
     2.000000000000E+00 0.000000000000E+00-1.769512891769E-08 9.000000000000E+01
     2.880180000000E+05 4.000000000000E+00
